[{"OBJECT_NAME":"STARLINK-32224","OBJECT_ID":"2024-155T","EPOCH":"2026-03-09T10:49:51.147552","MEAN_MOTION":15.30191785,"ECCENTRICITY":0.00011615,"INCLINATION":53.16,"RA_OF_ASC_NODE":130.8257,"ARG_OF_PERICENTER":71.2422,"MEAN_ANOMALY":288.8705,"EPHEMERIS_TYPE":0,"CLASSIFICATION_TYPE":"U","NORAD_CAT_ID":60941,"ELEMENT_SET_NO":999,"REV_AT_EPOCH":8631,"BSTAR":9.2169991e-5,"MEAN_MOTION_DOT":2.371e-5,"MEAN_MOTION_DDOT":0},{"OBJECT_NAME":"HAWK-11A","OBJECT_ID":"2024-247F","EPOCH":"2026-03-09T12:17:43.893312","MEAN_MOTION":15.28849427,"ECCENTRICITY":0.00054663,"INCLINATION":44.9941,"RA_OF_ASC_NODE":114.3328,"ARG_OF_PERICENTER":327.3713,"MEAN_ANOMALY":32.6832,"EPHEMERIS_TYPE":0,"CLASSIFICATION_TYPE":"U","NORAD_CAT_ID":62382,"ELEMENT_SET_NO":999,"REV_AT_EPOCH":6774,"BSTAR":0.00034106017,"MEAN_MOTION_DOT":9.457e-5,"MEAN_MOTION_DDOT":0}]
